[{"OBJECT_NAME":"STARLINK-3302","OBJECT_ID":"2022-001AR","EPOCH":"2026-03-09T14:38:07.368000","MEAN_MOTION":15.08837644,"ECCENTRICITY":0.0001456,"INCLINATION":53.2182,"RA_OF_ASC_NODE":179.482,"ARG_OF_PERICENTER":96.2762,"MEAN_ANOMALY":263.8396,"EPHEMERIS_TYPE":0,"CLASSIFICATION_TYPE":"U","NORAD_CAT_ID":50842,"ELEMENT_SET_NO":999,"REV_AT_EPOCH":23024,"BSTAR":1.4976e-5,"MEAN_MOTION_DOT":-5.0e-7,"MEAN_MOTION_DDOT":0},{"OBJECT_NAME":"LEMUR-2-MARHISYAM","OBJECT_ID":"2024-149BW","EPOCH":"2026-03-09T17:46:07.876416","MEAN_MOTION":15.0901552,"ECCENTRICITY":0.00035778,"INCLINATION":97.6912,"RA_OF_ASC_NODE":151.2662,"ARG_OF_PERICENTER":107.3271,"MEAN_ANOMALY":252.8349,"EPHEMERIS_TYPE":0,"CLASSIFICATION_TYPE":"U","NORAD_CAT_ID":60536,"ELEMENT_SET_NO":999,"REV_AT_EPOCH":8547,"BSTAR":0.00082973442,"MEAN_MOTION_DOT":0.00013075,"MEAN_MOTION_DDOT":0}]
